[{"OBJECT_NAME":"SUPERVIEW NEO-1 03","OBJECT_ID":"2025-040A","EPOCH":"2026-03-09T18:28:12.817056","MEAN_MOTION":15.21682826,"ECCENTRICITY":0.00014726,"INCLINATION":97.338,"RA_OF_ASC_NODE":185.5773,"ARG_OF_PERICENTER":140.3569,"MEAN_ANOMALY":219.7775,"EPHEMERIS_TYPE":0,"CLASSIFICATION_TYPE":"U","NORAD_CAT_ID":63125,"ELEMENT_SET_NO":999,"REV_AT_EPOCH":5706,"BSTAR":4.236936e-6,"MEAN_MOTION_DOT":2.9e-7,"MEAN_MOTION_DDOT":0},{"OBJECT_NAME":"ALSAT-3B","OBJECT_ID":"2026-021A","EPOCH":"2026-03-09T21:47:36.363264","MEAN_MOTION":15.23965648,"ECCENTRICITY":0.00137736,"INCLINATION":97.4662,"RA_OF_ASC_NODE":143.2461,"ARG_OF_PERICENTER":131.2824,"MEAN_ANOMALY":228.9602,"EPHEMERIS_TYPE":0,"CLASSIFICATION_TYPE":"U","NORAD_CAT_ID":67646,"ELEMENT_SET_NO":999,"REV_AT_EPOCH":575,"BSTAR":0.00034138739,"MEAN_MOTION_DOT":8.212e-5,"MEAN_MOTION_DDOT":0}]
